ONEWEB-0130             
1 47276U 20100U   26191.36597127 -.00000088  00000+0 -27955-3 0  9996
2 47276  87.8962 346.0440 0001860  98.0712 262.0628 13.12441566267689
ONEWEB-0131             
1 47277U 20100V   26190.67644871 -.00000094  00000+0 -29606-3 0  9991
2 47277  87.8952 346.1970 0001765  99.6175 260.5153 13.12441343267636
ONEWEB-0132             
1 47278U 20100W   26191.39137643 -.00000232  00000+0 -67953-3 0  9997
2 47278  87.8955 346.0574 0001810  97.9925 262.1409 13.12443340267624
ONEWEB-0133             
1 47279U 20100X   26190.72205083  .00000397  00000+0  10678-2 0  9999
2 47279  87.8968 346.1685 0001767  99.4588 260.6741 13.12443976267690
ONEWEB-0134             
1 47280U 20100Y   26191.37782209 -.00000332  00000+0 -95959-3 0  9990
2 47280  87.8967 346.0354 0001988 102.4100 257.7251 13.12442246267752
ONEWEB-0135             
1 47281U 20100Z   26191.42526760  .00000458  00000+0  12374-2 0  9991
2 47281  87.8953 346.0456 0001890 105.5540 254.5797 13.12442347267780
ONEWEB-0136             
1 47282U 20100AA  26191.36766025 -.00000100  00000+0 -31200-3 0  9991
2 47282  87.8957 346.0414 0001946 101.5151 258.6197 13.12441550267701
ONEWEB-0137             
1 47283U 20100AB  26191.40154587  .00000058  00000+0  12501-3 0  9994
2 47283  87.8967 346.0449 0001848  91.1434 268.9906 13.12444290267616
ONEWEB-0138             
1 47284U 20100AC  26191.37951937 -.00000341  00000+0 -98280-3 0  9990
2 47284  87.8966 346.0538 0002007 100.2653 259.8702 13.12442477267694
ONEWEB-0139             
1 47285U 20100AD  26190.73419767  .00000425  00000+0  11461-2 0  9996
2 47285  87.8960 346.1683 0001899  96.7488 263.3857 13.12441897267689
ONEWEB-0140             
1 47286U 20100AE  26191.37443609 -.00000314  00000+0 -90912-3 0  9998
2 47286  87.8964 346.0327 0001685  98.3455 261.7865 13.12441834267731
ONEWEB-0141             
1 47287U 20100AF  26191.42004730  .00000566  00000+0  15388-2 0  9993
2 47287  87.8945 346.0276 0001724  85.2223 274.9103 13.12442553267725
ONEWEB-0142             
1 47288U 20100AG  26191.40846905  .00000309  00000+0  82218-3 0  9992
2 47288  87.8958 346.0505 0002220  90.1549 269.9834 13.12444699267710
ONEWEB-0143             
1 47289U 20100AH  26190.73235834  .00000563  00000+0  15307-2 0  9997
2 47289  87.8961 346.1848 0001885  94.9126 265.2218 13.12443167267607
ONEWEB-0144             
1 47290U 20100AJ  26191.38968549 -.00000278  00000+0 -80778-3 0  9997
2 47290  87.8965 346.0295 0002215  99.4052 260.7327 13.12443243267611
ONEWEB-0145             
1 47291U 20100AK  26191.36088810  .00000031  00000+0  50309-4 0  9993
2 47291  87.8955 346.0600 0001953  96.0678 264.0673 13.12441390267809
ONEWEB-0146             
1 47292U 20100AL  26191.35750169  .00000212  00000+0  55269-3 0  9996
2 47292  87.8960 346.0561 0001484  89.3250 270.8049 13.12442380267714
ONEWEB-0147             
1 47293U 20100AM  26191.39985343  .00000022  00000+0  24543-4 0  9996
2 47293  87.8959 346.0282 0001866 101.7742 258.3596 13.12444525267612
ONEWEB-0115             
1 48042U 21025A   26191.33368874  .00000295  00000+0  77200-3 0  9993
2 48042  87.8976 315.6172 0001870 100.7676 259.3664 13.13471057256632
ONEWEB-0152             
1 48043U 21025B   26191.27106328 -.00004517  00000+0 -12406-1 0  9999
2 48043  87.9022 315.6270 0002460 161.4675 198.6544 13.13498083256588
ONEWEB-0153             
1 48044U 21025C   26191.32523689  .00000272  00000+0  71014-3 0  9993
2 48044  87.8973 315.6175 0001979  97.3585 262.7769 13.13470190256589
ONEWEB-0154             
1 48045U 21025D   26191.32185347  .00000199  00000+0  51004-3 0  9994
2 48045  87.8976 315.6179 0001883 107.5291 252.6044 13.13470601256546
ONEWEB-0116             
1 48046U 21025E   26191.28460787 -.00000156  00000+0 -46214-3 0  9996
2 48046  87.8988 315.6215 0001817 103.6935 256.4396 13.13469394256684
ONEWEB-0107             
1 48048U 21025G   26190.27231040  .00000253  00000+0  65892-3 0  9993
2 48048  87.8984 315.8165 0002121 102.1576 257.9791 13.13471620256424
ONEWEB-0101             
1 48049U 21025H   26191.30153942 -.00000275  00000+0 -78889-3 0  9999
2 48049  87.8970 315.6259 0002029 103.1896 256.9460 13.13471071256539
ONEWEB-0113             
1 48050U 21025J   26190.63308588  .00000164  00000+0  41275-3 0  9998
2 48050  87.8971 315.6668 0001851  97.3915 262.7425 13.13891593256557
ONEWEB-0112             
1 48051U 21025K   26190.35355208  .00000163  00000+0  41124-3 0  9991
2 48051  87.8982 315.7990 0002128 105.2632 254.8733 13.13468878256507
ONEWEB-0156             
1 48052U 21025L   26191.27614743  .00000069  00000+0  15468-3 0  9993
2 48052  87.8984 315.6247 0002018  98.9149 261.2209 13.13471323256603
ONEWEB-0161             
1 48053U 21025M   26191.40310644  .00000369  00000+0  97553-3 0  9990
2 48053  87.8981 315.6006 0002076  96.4003 263.7362 13.13469958256552
