OBJECT_NAME,OBJECT_ID,EPOCH,MEAN_MOTION,ECCENTRICITY,INCLINATION,RA_OF_ASC_NODE,ARG_OF_PERICENTER,MEAN_ANOMALY,EPHEMERIS_TYPE,CLASSIFICATION_TYPE,NORAD_CAT_ID,ELEMENT_SET_NO,REV_AT_EPOCH,BSTAR,MEAN_MOTION_DOT,MEAN_MOTION_DDOT
ONEWEB-0130,2020-100U,2026-07-10T08:46:59.917728,13.12441566,.00018609,87.8962,346.0440,98.0712,262.0628,0,U,47276,999,26768,-.27954726E-3,-.88E-6,0
ONEWEB-0131,2020-100V,2026-07-09T16:14:05.168544,13.12441343,.0001765,87.8952,346.1970,99.6175,260.5153,0,U,47277,999,26763,-.29605723E-3,-.94E-6,0
ONEWEB-0132,2020-100W,2026-07-10T09:23:34.923552,13.12443340,.00018107,87.8955,346.0574,97.9925,262.1409,0,U,47278,999,26762,-.67953263E-3,-.232E-5,0
ONEWEB-0133,2020-100X,2026-07-09T17:19:45.191712,13.12443976,.00017678,87.8968,346.1685,99.4588,260.6741,0,U,47279,999,26769,.10677819E-2,.397E-5,0
ONEWEB-0134,2020-100Y,2026-07-10T09:04:03.828576,13.12442246,.00019881,87.8967,346.0354,102.4100,257.7251,0,U,47280,999,26775,-.9595864E-3,-.332E-5,0
ONEWEB-0135,2020-100Z,2026-07-10T10:12:23.120640,13.12442347,.00018907,87.8953,346.0456,105.5540,254.5797,0,U,47281,999,26778,.12373571E-2,.458E-5,0
ONEWEB-0136,2020-100AA,2026-07-10T08:49:25.845600,13.12441550,.00019469,87.8957,346.0414,101.5151,258.6197,0,U,47282,999,26770,-.31199695E-3,-.1E-5,0
ONEWEB-0137,2020-100AB,2026-07-10T09:38:13.563168,13.12444290,.00018484,87.8967,346.0449,91.1434,268.9906,0,U,47283,999,26761,.12501268E-3,.58E-6,0
ONEWEB-0138,2020-100AC,2026-07-10T09:06:30.473568,13.12442477,.00020071,87.8966,346.0538,100.2653,259.8702,0,U,47284,999,26769,-.98280198E-3,-.341E-5,0
ONEWEB-0139,2020-100AD,2026-07-09T17:37:14.678688,13.12441897,.00018996,87.8960,346.1683,96.7488,263.3857,0,U,47285,999,26768,.11461473E-2,.425E-5,0
ONEWEB-0140,2020-100AE,2026-07-10T08:59:11.278176,13.12441834,.00016852,87.8964,346.0327,98.3455,261.7865,0,U,47286,999,26773,-.90911605E-3,-.314E-5,0
ONEWEB-0141,2020-100AF,2026-07-10T10:04:52.086720,13.12442553,.00017248,87.8945,346.0276,85.2223,274.9103,0,U,47287,999,26772,.15388354E-2,.566E-5,0
ONEWEB-0142,2020-100AG,2026-07-10T09:48:11.725920,13.12444699,.000222,87.8958,346.0505,90.1549,269.9834,0,U,47288,999,26771,.82218459E-3,.309E-5,0
ONEWEB-0143,2020-100AH,2026-07-09T17:34:35.760576,13.12443167,.00018851,87.8961,346.1848,94.9126,265.2218,0,U,47289,999,26760,.15307368E-2,.563E-5,0
ONEWEB-0144,2020-100AJ,2026-07-10T09:21:08.826336,13.12443243,.0002215,87.8965,346.0295,99.4052,260.7327,0,U,47290,999,26761,-.80778292E-3,-.278E-5,0
ONEWEB-0145,2020-100AK,2026-07-10T08:39:40.731840,13.12441390,.00019532,87.8955,346.0600,96.0678,264.0673,0,U,47291,999,26780,.50308882E-4,.31E-6,0
ONEWEB-0146,2020-100AL,2026-07-10T08:34:48.146016,13.12442380,.00014849,87.8960,346.0561,89.3250,270.8049,0,U,47292,999,26771,.55269372E-3,.212E-5,0
ONEWEB-0147,2020-100AM,2026-07-10T09:35:47.336352,13.12444525,.00018666,87.8959,346.0282,101.7742,258.3596,0,U,47293,999,26761,.24543407E-4,.22E-6,0
ONEWEB-0115,2021-025A,2026-07-10T08:00:30.707136,13.13471057,.00018708,87.8976,315.6172,100.7676,259.3664,0,U,48042,999,25663,.77199601E-3,.295E-5,0
ONEWEB-0152,2021-025B,2026-07-10T06:30:19.867392,13.13498083,.00024601,87.9022,315.6270,161.4675,198.6544,0,U,48043,999,25658,-.12405679E-1,-.4517E-4,0
ONEWEB-0153,2021-025C,2026-07-10T07:48:20.467296,13.13470190,.00019792,87.8973,315.6175,97.3585,262.7769,0,U,48044,999,25658,.71014234E-3,.272E-5,0
ONEWEB-0154,2021-025D,2026-07-10T07:43:28.139808,13.13470601,.00018832,87.8976,315.6179,107.5291,252.6044,0,U,48045,999,25654,.51004109E-3,.199E-5,0
ONEWEB-0116,2021-025E,2026-07-10T06:49:50.119968,13.13469394,.00018174,87.8988,315.6215,103.6935,256.4396,0,U,48046,999,25668,-.46214241E-3,-.156E-5,0
ONEWEB-0107,2021-025G,2026-07-09T06:32:07.618560,13.13471620,.00021211,87.8984,315.8165,102.1576,257.9791,0,U,48048,999,25642,.6589163E-3,.253E-5,0
ONEWEB-0101,2021-025H,2026-07-10T07:14:13.005888,13.13471071,.00020299,87.8970,315.6259,103.1896,256.9460,0,U,48049,999,25653,-.78888948E-3,-.275E-5,0
ONEWEB-0113,2021-025J,2026-07-09T15:11:38.620032,13.13891593,.00018514,87.8971,315.6668,97.3915,262.7425,0,U,48050,999,25655,.41275318E-3,.164E-5,0
ONEWEB-0112,2021-025K,2026-07-09T08:29:06.899712,13.13468878,.0002128,87.8982,315.7990,105.2632,254.8733,0,U,48051,999,25650,.41124082E-3,.163E-5,0
ONEWEB-0156,2021-025L,2026-07-10T06:37:39.137952,13.13471323,.00020182,87.8984,315.6247,98.9149,261.2209,0,U,48052,999,25660,.15468177E-3,.69E-6,0
ONEWEB-0161,2021-025M,2026-07-10T09:40:28.396416,13.13469958,.00020767,87.8981,315.6006,96.4003,263.7362,0,U,48053,999,25655,.97552644E-3,.369E-5,0
